start=new Date('2021-10-10T00:00:00.000Z').valueOf();
sats=[{"ARG_OF_PERICENTER":"332.1937","CENTER_NAME":"EARTH","MEAN_ANOMALY":"97.3764","MEAN_MOTION_DDOT":"0.0000000000000","CLASSIFICATION_TYPE":"U","NORAD_CAT_ID":"48006","TLE_LINE2":"2 48006  53.0427 291.8647 0007955 332.1937  97.3764 15.75518888  3681","REF_FRAME":"TEME","MEAN_MOTION_DOT":"0.00077791","FILE":"3153808","PERIAPSIS":"337.810","REV_AT_EPOCH":"368","ECCENTRICITY":"0.00079550","OBJECT_NAME":"STARLINK-2277","DECAY_DATE":null,"LAUNCH_DATE":"2021-03-24","SEMIMAJOR_AXIS":"6721.292","BSTAR":"0.00049992000000","TLE_LINE1":"1 48006U 21024AF  21283.00001157  .00077791  00000-0  49992-3 0  9994","MEAN_ELEMENT_THEORY":"SGP4","COUNTRY_CODE":"US","APOAPSIS":"348.504","GP_ID":"186728880","SITE":"AFETR","INCLINATION":"53.0427","RCS_SIZE":"LARGE","OBJECT_ID":"2021-024AF","EPOCH":"2021-10-10T00:00:00.999648","TIME_SYSTEM":"UTC","PERIOD":"91.398","MEAN_MOTION":"15.75518888","ELEMENT_SET_NO":"999","OBJECT_TYPE":"PAYLOAD","EPHEMERIS_TYPE":"0","RA_OF_ASC_NODE":"291.8647"},{"MEAN_MOTION":"15.73240156","PERIOD":"91.531","TIME_SYSTEM":"UTC","EPOCH":"2021-10-10T00:00:00.999648","RA_OF_ASC_NODE":"292.0252","OBJECT_TYPE":"PAYLOAD","EPHEMERIS_TYPE":"0","ELEMENT_SET_NO":"999","COUNTRY_CODE":"US","MEAN_ELEMENT_THEORY":"SGP4","TLE_LINE1":"1 48007U 21024AG  21283.00001157 -.00029114  00000-0 -20328-3 0  9995","BSTAR":"-0.00020328000000","SEMIMAJOR_AXIS":"6727.781","RCS_SIZE":"LARGE","OBJECT_ID":"2021-024AG","INCLINATION":"53.0442","SITE":"AFETR","GP_ID":"186729627","APOAPSIS":"351.497","REV_AT_EPOCH":"371","PERIAPSIS":"347.794","FILE":"3153808","LAUNCH_DATE":"2021-03-24","DECAY_DATE":null,"ECCENTRICITY":"0.00027520","OBJECT_NAME":"STARLINK-2259","MEAN_MOTION_DDOT":"0.0000000000000","CENTER_NAME":"EARTH","MEAN_ANOMALY":"334.7168","ARG_OF_PERICENTER":"16.9203","MEAN_MOTION_DOT":"-0.00029114","REF_FRAME":"TEME","TLE_LINE2":"2 48007  53.0442 292.0252 0002752  16.9203 334.7168 15.73240156  3715","NORAD_CAT_ID":"48007","CLASSIFICATION_TYPE":"U"},{"MEAN_ELEMENT_THEORY":"SGP4","COUNTRY_CODE":"US","SEMIMAJOR_AXIS":"6727.703","BSTAR":"0.00015026000000","TLE_LINE1":"1 48008U 21024AH  21283.00001157  .00020589  00000-0  15026-3 0  9990","SITE":"AFETR","OBJECT_ID":"2021-024AH","RCS_SIZE":"LARGE","INCLINATION":"53.0431","GP_ID":"186727880","APOAPSIS":"352.518","MEAN_MOTION":"15.73267279","PERIOD":"91.529","TIME_SYSTEM":"UTC","EPOCH":"2021-10-10T00:00:00.999648","RA_OF_ASC_NODE":"292.3317","OBJECT_TYPE":"PAYLOAD","EPHEMERIS_TYPE":"0","ELEMENT_SET_NO":"999","MEAN_MOTION_DDOT":"0.0000000000000","MEAN_ANOMALY":"217.5712","CENTER_NAME":"EARTH","ARG_OF_PERICENTER":"341.0699","MEAN_MOTION_DOT":"0.00020589","NORAD_CAT_ID":"48008","TLE_LINE2":"2 48008  53.0431 292.3317 0004385 341.0699 217.5712 15.73267279  3677","REF_FRAME":"TEME","CLASSIFICATION_TYPE":"U","REV_AT_EPOCH":"367","PERIAPSIS":"346.618","FILE":"3153808","LAUNCH_DATE":"2021-03-24","DECAY_DATE":null,"ECCENTRICITY":"0.00043850","OBJECT_NAME":"STARLINK-2271"},{"ELEMENT_SET_NO":"999","OBJECT_TYPE":"PAYLOAD","EPHEMERIS_TYPE":"0","RA_OF_ASC_NODE":"353.6461","EPOCH":"2021-10-09T13:55:23.149056","TIME_SYSTEM":"UTC","PERIOD":"95.593","MEAN_MOTION":"15.06391806","APOAPSIS":"547.987","GP_ID":"186728125","RCS_SIZE":"LARGE","OBJECT_ID":"2021-024AJ","INCLINATION":"53.0558","SITE":"AFETR","TLE_LINE1":"1 48009U 21024AJ  21282.58012904 -.00000403  00000-0 -81598-5 0  9999","BSTAR":"-0.00000815980000","SEMIMAJOR_AXIS":"6925.374","COUNTRY_CODE":"US","MEAN_ELEMENT_THEORY":"SGP4","ECCENTRICITY":"0.00010800","OBJECT_NAME":"STARLINK-2153","DECAY_DATE":null,"LAUNCH_DATE":"2021-03-24","FILE":"3153808","PERIAPSIS":"546.491","REV_AT_EPOCH":"3180","CLASSIFICATION_TYPE":"U","REF_FRAME":"TEME","NORAD_CAT_ID":"48009","TLE_LINE2":"2 48009  53.0558 353.6461 0001080  89.7733 270.3379 15.06391806 31805","MEAN_MOTION_DOT":"-0.00000403","ARG_OF_PERICENTER":"89.7733","CENTER_NAME":"EARTH","MEAN_ANOMALY":"270.3379","MEAN_MOTION_DDOT":"0.0000000000000"},{"PERIAPSIS":"546.379","REV_AT_EPOCH":"3153","FILE":"3153808","LAUNCH_DATE":"2021-03-24","ECCENTRICITY":"0.00012140","OBJECT_NAME":"STARLINK-2226","DECAY_DATE":null,"CENTER_NAME":"EARTH","MEAN_ANOMALY":"271.1575","MEAN_MOTION_DDOT":"0.0000000000000","ARG_OF_PERICENTER":"88.9553","NORAD_CAT_ID":"48010","TLE_LINE2":"2 48010  53.0537  13.3395 0001214  88.9553 271.1575 15.06398070 31537","REF_FRAME":"TEME","MEAN_MOTION_DOT":"0.00000403","CLASSIFICATION_TYPE":"U","PERIOD":"95.592","MEAN_MOTION":"15.06398070","EPOCH":"2021-10-09T15:45:32.765472","TIME_SYSTEM":"UTC","RA_OF_ASC_NODE":"13.3395","ELEMENT_SET_NO":"999","EPHEMERIS_TYPE":"0","OBJECT_TYPE":"PAYLOAD","MEAN_ELEMENT_THEORY":"SGP4","COUNTRY_CODE":"US","SEMIMAJOR_AXIS":"6925.354","TLE_LINE1":"1 48010U 21024AK  21282.65662923  .00000403  00000-0  45923-4 0  9990","BSTAR":"0.00004592300000","GP_ID":"186729380","SITE":"AFETR","OBJECT_ID":"2021-024AK","RCS_SIZE":"LARGE","INCLINATION":"53.0537","APOAPSIS":"548.060"},{"MEAN_ELEMENT_THEORY":"SGP4","COUNTRY_CODE":"US","SEMIMAJOR_AXIS":"6925.369","TLE_LINE1":"1 48011U 21024AL  21282.61330414 -.00001558  00000-0 -85752-4 0  9992","BSTAR":"-0.00008575200000","GP_ID":"186729128","SITE":"AFETR","OBJECT_ID":"2021-024AL","RCS_SIZE":"LARGE","INCLINATION":"53.0565","APOAPSIS":"548.057","PERIOD":"95.593","MEAN_MOTION":"15.06393195","EPOCH":"2021-10-09T14:43:09.477696","TIME_SYSTEM":"UTC","RA_OF_ASC_NODE":"353.4954","ELEMENT_SET_NO":"999","EPHEMERIS_TYPE":"0","OBJECT_TYPE":"PAYLOAD","CENTER_NAME":"EARTH","MEAN_ANOMALY":"254.4283","MEAN_MOTION_DDOT":"0.0000000000000","ARG_OF_PERICENTER":"105.6837","TLE_LINE2":"2 48011  53.0565 353.4954 0001188 105.6837 254.4283 15.06393195 31869","NORAD_CAT_ID":"48011","REF_FRAME":"TEME","MEAN_MOTION_DOT":"-0.00001558","CLASSIFICATION_TYPE":"U","PERIAPSIS":"546.412","REV_AT_EPOCH":"3186","FILE":"3153808","LAUNCH_DATE":"2021-03-24","OBJECT_NAME":"STARLINK-2272","ECCENTRICITY":"0.00011880","DECAY_DATE":null},{"COUNTRY_CODE":"US","MEAN_ELEMENT_THEORY":"SGP4","BSTAR":"0.00009201700000","TLE_LINE1":"1 48012U 21024AM  21282.55204268  .00001090  00000-0  92017-4 0  9994","SEMIMAJOR_AXIS":"6925.334","GP_ID":"186728380","RCS_SIZE":"LARGE","INCLINATION":"53.0535","OBJECT_ID":"2021-024AM","SITE":"AFETR","APOAPSIS":"547.919","MEAN_MOTION":"15.06404679","PERIOD":"95.592","EPOCH":"2021-10-09T13:14:56.487552","TIME_SYSTEM":"UTC","RA_OF_ASC_NODE":"328.7697","ELEMENT_SET_NO":"999","EPHEMERIS_TYPE":"0","OBJECT_TYPE":"PAYLOAD","MEAN_ANOMALY":"269.6402","CENTER_NAME":"EARTH","MEAN_MOTION_DDOT":"0.0000000000000","ARG_OF_PERICENTER":"90.4706","REF_FRAME":"TEME","NORAD_CAT_ID":"48012","TLE_LINE2":"2 48012  53.0535 328.7697 0001039  90.4706 269.6402 15.06404679 32207","MEAN_MOTION_DOT":"0.00001090","CLASSIFICATION_TYPE":"U","PERIAPSIS":"546.480","REV_AT_EPOCH":"3220","FILE":"3153808","LAUNCH_DATE":"2021-03-24","ECCENTRICITY":"0.00010390","OBJECT_NAME":"STARLINK-2216","DECAY_DATE":null},{"CENTER_NAME":"EARTH","MEAN_ANOMALY":"254.9952","MEAN_MOTION_DDOT":"0.0000000000000","ARG_OF_PERICENTER":"105.1142","REF_FRAME":"TEME","TLE_LINE2":"2 48013  53.0552 338.1427 0000964 105.1142 254.9952 15.02319539 32020","NORAD_CAT_ID":"48013","MEAN_MOTION_DOT":"-0.00001854","CLASSIFICATION_TYPE":"U","PERIAPSIS":"559.079","REV_AT_EPOCH":"3202","FILE":"3153808","LAUNCH_DATE":"2021-03-24","OBJECT_NAME":"STARLINK-2243","ECCENTRICITY":"0.00009640","DECAY_DATE":null,"COUNTRY_CODE":"US","MEAN_ELEMENT_THEORY":"SGP4","TLE_LINE1":"1 48013U 21024AN  21282.58610542 -.00001854  00000-0 -11863-3 0  9993","BSTAR":"-0.00011863000000","SEMIMAJOR_AXIS":"6937.883","GP_ID":"186728625","RCS_SIZE":"LARGE","INCLINATION":"53.0552","OBJECT_ID":"2021-024AN","SITE":"AFETR","APOAPSIS":"560.417","PERIOD":"95.852","MEAN_MOTION":"15.02319539","EPOCH":"2021-10-09T14:03:59.508288","TIME_SYSTEM":"UTC","RA_OF_ASC_NODE":"338.1427","ELEMENT_SET_NO":"999","OBJECT_TYPE":"PAYLOAD","EPHEMERIS_TYPE":"0"},{"APOAPSIS":"540.957","SITE":"AFETR","RCS_SIZE":"LARGE","OBJECT_ID":"2021-024AP","INCLINATION":"53.0529","GP_ID":"186728881","SEMIMAJOR_AXIS":"6917.817","BSTAR":"-0.06670600000000","TLE_LINE1":"1 48014U 21024AP  21283.00001157 -.00989298  00000-0 -66706-1 0  9999","MEAN_ELEMENT_THEORY":"SGP4","COUNTRY_CODE":"US","EPHEMERIS_TYPE":"0","OBJECT_TYPE":"PAYLOAD","ELEMENT_SET_NO":"999","RA_OF_ASC_NODE":"300.1419","TIME_SYSTEM":"UTC","EPOCH":"2021-10-10T00:00:00.999648","MEAN_MOTION":"15.08860899","PERIOD":"95.436","CLASSIFICATION_TYPE":"U","MEAN_MOTION_DOT":"-0.00989298","TLE_LINE2":"2 48014  53.0529 300.1419 0001844  38.1716 268.3597 15.08860899  3629","NORAD_CAT_ID":"48014","REF_FRAME":"TEME","ARG_OF_PERICENTER":"38.1716","MEAN_MOTION_DDOT":"0.0000000000000","CENTER_NAME":"EARTH","MEAN_ANOMALY":"268.3597","DECAY_DATE":null,"ECCENTRICITY":"0.00018440","OBJECT_NAME":"STARLINK-2283","LAUNCH_DATE":"2021-03-24","FILE":"3153808","REV_AT_EPOCH":"362","PERIAPSIS":"538.406"},{"CLASSIFICATION_TYPE":"U","MEAN_MOTION_DOT":"0.00068614","TLE_LINE2":"2 48015  53.0440 292.0196 0001889  38.5874 313.5353 15.73217540  3726","NORAD_CAT_ID":"48015","REF_FRAME":"TEME","ARG_OF_PERICENTER":"38.5874","MEAN_MOTION_DDOT":"0.0000000000000","MEAN_ANOMALY":"313.5353","CENTER_NAME":"EARTH","DECAY_DATE":null,"ECCENTRICITY":"0.00018890","OBJECT_NAME":"STARLINK-2281","LAUNCH_DATE":"2021-03-24","FILE":"3153808","REV_AT_EPOCH":"372","PERIAPSIS":"348.439","APOAPSIS":"350.981","SITE":"AFETR","OBJECT_ID":"2021-024AQ","RCS_SIZE":"LARGE","INCLINATION":"53.0440","GP_ID":"186729628","SEMIMAJOR_AXIS":"6727.845","BSTAR":"0.00048884000000","TLE_LINE1":"1 48015U 21024AQ  21283.00001157  .00068614  00000-0  48884-3 0  9997","MEAN_ELEMENT_THEORY":"SGP4","COUNTRY_CODE":"US","OBJECT_TYPE":"PAYLOAD","EPHEMERIS_TYPE":"0","ELEMENT_SET_NO":"999","RA_OF_ASC_NODE":"292.0196","TIME_SYSTEM":"UTC","EPOCH":"2021-10-10T00:00:00.999648","PERIOD":"91.532","MEAN_MOTION":"15.73217540"}];
